NORAD_CAT_ID,OBJECT_NAME,OBJECT_TYPE,EPOCH,MEAN_MOTION,ECCENTRICITY,INCLINATION,RA_OF_ASC_NODE,ARG_OF_PERICENTER,MEAN_ANOMALY,BSTAR,MEAN_MOTION_DOT,MEAN_MOTION_DDOT,TLE_LINE0,TLE_LINE1,TLE_LINE2,SEMIMAJOR_AXIS,PERIOD,APOGEE,PERIGEE,DECAYED
54194.0,STARLINK-5271,PAYLOAD,2023-02-23 19:20:12,15.08843383,0.0001033,53.2164,296.5397,82.8081,277.3029,4.972e-05,5.04e-06,0.0,0 STARLINK-5271,1 54194U 22141AP  23054.80570047  .00000504  00000-0  49720-4 0  9993,2 54194  53.2164 296.5397 0001033  82.8081 277.3029 15.08843383 18441,6917.87,95.437,540.45,539.02,0.0
54194.0,STARLINK-5271,PAYLOAD,2023-02-23 22:30:58,15.08848037,9.65e-05,53.2162,295.9449,82.2203,277.8898,8.7883e-05,1.111e-05,0.0,0 STARLINK-5271,1 54194U 22141AP  23054.93817573  .00001111  00000-0  87883-4 0  9992,2 54194  53.2162 295.9449 0000965  82.2203 277.8898 15.08848037 18690,6917.856,95.437,540.388,539.053,0.0
54194.0,STARLINK-5271,PAYLOAD,2023-02-24 19:10:59,15.08836303,9.83e-05,53.2159,292.0779,79.6864,280.4239,3.2852e-05,2.35e-06,0.0,0 STARLINK-5271,1 54194U 22141AP  23055.79930552  .00000235  00000-0  32852-4 0  9992,2 54194  53.2159 292.0779 0000983  79.6864 280.4239 15.08836303 18594,6917.892,95.438,540.437,539.077,0.0
54194.0,STARLINK-5271,PAYLOAD,2023-02-24 20:46:23,15.0883579,0.0001008,53.2157,291.7818,83.7124,276.3983,5.6283e-05,6.08e-06,0.0,0 STARLINK-5271,1 54194U 22141AP  23055.86554514  .00000608  00000-0  56283-4 0  9998,2 54194  53.2157 291.7818 0001008  83.7124 276.3983 15.08835790 18832,6917.893,95.438,540.456,539.061,0.0
54194.0,STARLINK-5271,PAYLOAD,2023-02-25 01:32:32,15.0883768,0.0001069,53.2163,290.8888,82.4962,277.6151,7.0542e-05,8.35e-06,0.0,0 STARLINK-5271,1 54194U 22141AP  23056.06426382  .00000835  00000-0  70542-4 0  9998,2 54194  53.2163 290.8888 0001069  82.4962 277.6151 15.08837680 18638,6917.887,95.438,540.492,539.013,0.0
54194.0,STARLINK-5271,PAYLOAD,2023-02-25 22:12:33,15.08844355,0.00011,53.2168,287.0225,79.4817,280.6299,-6.4341e-05,-1.312e-05,0.0,0 STARLINK-5271,1 54194U 22141AP  23056.92538521 -.00001312  00000-0 -64341-4 0  9995,2 54194  53.2168 287.0225 0001100  79.4817 280.6299 15.08844355 18765,6917.867,95.437,540.493,538.971,0.0
54194.0,STARLINK-5271,PAYLOAD,2023-02-26 01:23:19,15.08849885,0.0001138,53.2172,286.4273,80.675,279.4371,-2.1859e-05,-6.36e-06,0.0,0 STARLINK-5271,1 54194U 22141AP  23057.05785988 -.00000636  00000-0 -21859-4 0  9996,2 54194  53.2172 286.4273 0001138  80.6750 279.4371 15.08849885 19016,6917.85,95.437,540.502,538.928,0.0
54194.0,STARLINK-5271,PAYLOAD,2023-02-26 17:17:10,15.08841404,0.0001158,53.2163,283.454,78.3612,281.751,2.5374e-05,1.16e-06,0.0,0 STARLINK-5271,1 54194U 22141AP  23057.72026359  .00000116  00000-0  25374-4 0  9997,2 54194  53.2163 283.4540 0001158  78.3612 281.7510 15.08841404 19114,6917.876,95.437,540.542,538.94,0.0
54194.0,STARLINK-5271,PAYLOAD,2023-02-26 22:03:19,15.0884785,0.0001175,53.2161,282.5621,76.5582,283.5541,7.966e-05,9.8e-06,0.0,0 STARLINK-5271,1 54194U 22141AP  23057.91897748  .00000980  00000-0  79660-4 0  9992,2 54194  53.2161 282.5621 0001175  76.5582 283.5541 15.08847850 18919,6917.856,95.437,540.534,538.909,0.0
54194.0,STARLINK-5271,PAYLOAD,2023-02-27 01:14:05,15.08852007,0.000114,53.2165,281.9668,75.5761,284.5357,0.00011135,1.485e-05,0.0,0 STARLINK-5271,1 54194U 22141AP  23058.05145302  .00001485  00000-0  11135-3 0  9993,2 54194  53.2165 281.9668 0001140  75.5761 284.5357 15.08852007 19161,6917.844,95.437,540.497,538.92,0.0
54194.0,STARLINK-5271,PAYLOAD,2023-02-27 15:32:34,15.08840383,0.0001167,53.2175,279.2922,89.1005,271.012,-2.9129e-05,-7.51e-06,0.0,0 STARLINK-5271,1 54194U 22141AP  23058.64762666 -.00000751  00000-0 -29129-4 0  9996,2 54194  53.2175 279.2922 0001167  89.1005 271.0120 15.08840383 19259,6917.879,95.438,540.552,538.937,0.0
54194.0,STARLINK-5271,PAYLOAD,2023-02-27 18:43:20,15.08844626,0.0001168,53.2177,278.6993,95.1972,264.9154,2.3905e-07,-2.84e-06,0.0,0 STARLINK-5271,1 54194U 22141AP  23058.78010219 -.00000284  00000-0  23905-6 0  9999,2 54194  53.2177 278.6993 0001168  95.1972 264.9154 15.08844626 19042,6917.866,95.437,540.539,538.923,0.0
54194.0,STARLINK-5271,PAYLOAD,2023-02-28 02:40:15,15.08859843,0.0001093,53.2162,277.2081,84.9173,275.1944,0.00011752,1.584e-05,0.0,0 STARLINK-5271,1 54194U 22141AP  23059.11128662  .00001584  00000-0  11752-3 0  9996,2 54194  53.2162 277.2081 0001093  84.9173 275.1944 15.08859843 19324,6917.82,95.436,540.441,538.929,0.0
54194.0,STARLINK-5271,PAYLOAD,2023-02-28 18:34:10,15.0881737,8.8e-05,53.2164,274.2349,123.2462,236.8615,-0.00024051,-4.111e-05,0.0,0 STARLINK-5271,1 54194U 22141AP  23059.77372802 -.00004111  00000-0 -24051-3 0  9992,2 54194  53.2164 274.2349 0000880 123.2462 236.8615 15.08817370 19420,6917.95,95.439,540.423,539.206,0.0
54194.0,STARLINK-5271,PAYLOAD,2023-02-28 21:44:57,15.08809698,9.46e-05,53.2163,273.6399,111.5664,248.5429,-0.00029676,-5.003e-05,0.0,0 STARLINK-5271,1 54194U 22141AP  23059.90621674 -.00005003  00000-0 -29676-3 0  9990,2 54194  53.2163 273.6399 0000946 111.5664 248.5429 15.08809698 19218,6917.973,95.439,540.492,539.184,0.0
54194.0,STARLINK-5271,PAYLOAD,2023-03-01 02:31:06,15.08810394,9.55e-05,53.2165,272.7493,109.9809,250.1286,-0.00026646,-4.522e-05,0.0,0 STARLINK-5271,1 54194U 22141AP  23060.10494083 -.00004522  00000-0 -26646-3 0  9995,2 54194  53.2165 272.7493 0000955 109.9809 250.1286 15.08810394 19470,6917.971,95.439,540.497,539.175,0.0
54194.0,STARLINK-5271,PAYLOAD,2023-03-01 20:00:19,15.08844557,0.0001092,53.2167,269.4754,120.335,239.775,-2.26e-06,-3.24e-06,0.0,0 STARLINK-5271,1 54194U 22141AP  23060.83355506 -.00000324  00000-0 -22600-5 0  9995,2 54194  53.2167 269.4754 0001092 120.3350 239.7750 15.08844557 19585,6917.866,95.437,540.487,538.976,0.0
54194.0,STARLINK-5271,PAYLOAD,2023-03-02 02:21:51,15.08850064,0.0001399,53.2164,268.2858,113.9371,246.1768,4.6327e-05,4.5e-06,0.0,0 STARLINK-5271,1 54194U 22141AP  23061.09850902  .00000450  00000-0  46327-4 0  9993,2 54194  53.2164 268.2858 0001399 113.9371 246.1768 15.08850064 19621,6917.85,95.437,540.682,538.747,0.0
54194.0,STARLINK-5271,PAYLOAD,2023-03-02 19:51:05,15.08827003,0.0001028,53.2177,265.0164,110.6472,249.4631,0.00049342,7.571e-05,0.0,0 STARLINK-5271,1 54194U 22141AP  23061.82715113  .00007571  00000-0  49342-3 0  9998,2 54194  53.2177 265.0164 0001028 110.6472 249.4631 15.08827003 19739,6917.92,95.438,540.496,539.074,0.0
54194.0,STARLINK-5271,PAYLOAD,2023-03-03 13:20:21,15.08832557,8.96e-05,53.2175,261.7444,115.5486,244.5599,0.00025241,3.731e-05,0.0,0 STARLINK-5271,1 54194U 22141AP  23062.55579934  .00003731  00000-0  25241-3 0  9994,2 54194  53.2175 261.7444 0000896 115.5486 244.5599 15.08832557 19843,6917.903,95.438,540.388,539.148,0.0
54194.0,STARLINK-5271,PAYLOAD,2023-03-03 19:41:52,15.08855953,0.0001289,53.2162,260.5553,108.1065,252.0068,4.2099e-05,3.82e-06,0.0,0 STARLINK-5271,1 54194U 22141AP  23062.82074757  .00000382  00000-0  42099-4 0  9997,2 54194  53.2162 260.5553 0001289 108.1065 252.0068 15.08855953 19889,6917.832,95.437,540.588,538.805,0.0
54194.0,STARLINK-5271,PAYLOAD,2023-03-03 22:52:38,15.08859112,0.0001227,53.2169,259.9612,105.4337,254.6791,7.1073e-05,8.44e-06,0.0,0 STARLINK-5271,1 54194U 22141AP  23062.95322367  .00000844  00000-0  71073-4 0  9991,2 54194  53.2169 259.9612 0001227 105.4337 254.6791 15.08859112 19677,6917.822,95.436,540.536,538.838,0.0
54194.0,STARLINK-5271,PAYLOAD,2023-03-04 19:32:39,15.08848649,0.0001454,53.2194,256.0985,93.5977,266.5181,-9.277e-05,-1.764e-05,0.0,0 STARLINK-5271,1 54194U 22141AP  23063.81435134 -.00001764  00000-0 -92770-4 0  9995,2 54194  53.2194 256.0985 0001454  93.5977 266.5181 15.08848649 20035,6917.854,95.437,540.725,538.713,0.0
54194.0,STARLINK-5271,PAYLOAD,2023-03-05 13:01:54,15.08839092,0.0001207,53.2174,252.8245,90.2871,269.8259,-7.0061e-05,-1.403e-05,0.0,0 STARLINK-5271,1 54194U 22141AP  23064.54299575 -.00001403  00000-0 -70061-4 0  9992,2 54194  53.2174 252.8245 0001207  90.2871 269.8259 15.08839092 20145,6917.883,95.438,540.583,538.913,0.0
54194.0,STARLINK-5271,PAYLOAD,2023-03-05 19:23:26,15.08848031,0.0001317,53.2177,251.6367,95.4151,264.6992,2.5291e-05,1.15e-06,0.0,0 STARLINK-5271,1 54194U 22141AP  23064.80794711  .00000115  00000-0  25291-4 0  9995,2 54194  53.2177 251.6367 0001317  95.4151 264.6992 15.08848031 20184,6917.856,95.437,540.632,538.81,0.0
54194.0,STARLINK-5271,PAYLOAD,2023-03-06 04:55:46,15.08826314,0.0001108,53.2177,249.8527,104.9398,255.1717,-4.5701e-05,-1.015e-05,0.0,0 STARLINK-5271,1 54194U 22141AP  23065.20540198 -.00001015  00000-0 -45701-4 0  9998,2 54194  53.2177 249.8527 0001108 104.9398 255.1717 15.08826314 20245,6917.922,95.438,540.554,539.021,0.0
54194.0,STARLINK-5271,PAYLOAD,2023-03-06 19:14:13,15.08843902,0.000116,53.2172,247.1751,91.0616,269.0509,0.00011162,1.489e-05,0.0,0 STARLINK-5271,1 54194U 22141AP  23065.80155053  .00001489  00000-0  11162-3 0  9992,2 54194  53.2172 247.1751 0001160  91.0616 269.0509 15.08843902 20332,6917.868,95.437,540.536,538.931,0.0
54194.0,STARLINK-5271,PAYLOAD,2023-03-07 20:40:24,15.08846032,0.0001507,53.2164,242.4181,90.9044,269.2121,9.3148e-05,1.195e-05,0.0,0 STARLINK-5271,1 54194U 22141AP  23066.86139052  .00001195  00000-0  93148-4 0  9999,2 54194  53.2164 242.4181 0001507  90.9044 269.2121 15.08846032 20267,6917.862,95.437,540.769,538.684,0.0
54194.0,STARLINK-5271,PAYLOAD,2023-03-07 23:51:09,15.08859562,9.04e-05,53.2176,241.8208,85.9196,274.19,0.00026876,3.994e-05,0.0,0 STARLINK-5271,1 54194U 22141AP  23066.99386161  .00003994  00000-0  26876-3 0  9990,2 54194  53.2176 241.8208 0000904  85.9196 274.1900 15.08859562 20515,6917.821,95.436,540.311,539.06,0.0
54194.0,STARLINK-5271,PAYLOAD,2023-03-08 04:37:20,15.08825481,0.0001259,53.2167,240.9298,93.3693,266.7443,-0.00027034,-4.586e-05,0.0,0 STARLINK-5271,1 54194U 22141AP  23067.19259959 -.00004586  00000-0 -27034-3 0  9994,2 54194  53.2167 240.9298 0001259  93.3693 266.7443 15.08825481 20548,6917.925,95.438,540.661,538.919,0.0
